OBJECT_NAME,OBJECT_ID,EPOCH,MEAN_MOTION,ECCENTRICITY,INCLINATION,RA_OF_ASC_NODE,ARG_OF_PERICENTER,MEAN_ANOMALY,EPHEMERIS_TYPE,CLASSIFICATION_TYPE,NORAD_CAT_ID,ELEMENT_SET_NO,REV_AT_EPOCH,BSTAR,MEAN_MOTION_DOT,MEAN_MOTION_DDOT
KUZGTU 1 (RS47S),2023-091AV,2026-07-02T17:31:28.841088,15.30221983,.001137,97.5054,248.3711,48.9547,311.2675,0,U,57217,999,16675,.45554E-3,.13276E-3,0
SONATE-2,2024-043Q,2026-07-02T16:02:43.229760,15.59918243,.0007228,97.5548,335.0278,145.6904,214.4821,0,U,59112,999,13030,.52869E-3,.42661E-3,0
MESAT1,2024-125G,2026-07-02T14:08:54.426048,15.64971704,.0010893,97.2264,41.4395,152.1911,207.9933,0,U,60209,999,11197,.60393E-3,.59526E-3,0
OOV-CUBE (TUBSAT-30),2024-128F,2026-07-02T16:36:17.261280,15.02831807,.0042719,61.9926,171.5059,137.2336,223.2093,0,U,60240,999,10844,.17578E-3,.2197E-4,0
COLIBRI-S (RS67S),2024-199M,2026-07-02T18:28:07.362624,15.48378183,.0007337,97.2965,57.7703,207.9676,152.1181,0,U,61746,999,13982,.45094E-3,.23847E-3,0
HORS 3 (RS81S),2024-199U,2026-07-02T17:19:35.177952,15.56073870,.0005371,97.2948,59.8817,197.8625,162.2442,0,U,61753,999,13997,.52906E-3,.36926E-3,0
HORS 4 (RS82S),2024-199V,2026-07-02T18:17:20.577408,15.61204349,.0005465,97.2893,61.2287,185.6274,174.4923,0,U,61754,999,14007,.63069E-3,.5352E-3,0
SIT-2086,2024-199AF,2026-07-02T17:15:28.101600,15.54180027,.0006684,97.2905,60.3016,183.6555,176.4651,0,U,61764,999,13684,.59547E-3,.38811E-3,0
HYPERVIEW 1G (RS66S),2024-199AP,2026-07-02T15:53:50.235072,15.80601405,.0007234,97.2836,64.2118,173.7326,186.4034,0,U,61772,999,13711,.87982E-3,.170289E-2,0
ALTAIR (RS65S),2024-199AW,2026-07-02T17:38:56.704128,15.37324313,.0010924,97.3005,52.9849,245.8288,114.1815,0,U,61779,999,13950,.27563E-3,.1002E-3,0
ASRTU-1 (AO-123),2024-199AY,2026-07-02T17:41:36.989952,15.35897964,.0011981,97.2976,52.2682,249.8334,110.1622,0,U,61781,999,13631,.24287E-3,.8424E-4,0
SAMSAT-IONOSPHERE (RS75S),2024-199BB,2026-07-02T17:28:26.150016,15.59027757,.0007522,97.2915,59.9940,203.9899,156.1008,0,U,61784,999,13998,.5866E-3,.458E-3,0
RTU MIREA 1 (RS51S),2024-199BC,2026-07-02T18:43:49.913184,15.62868011,.0007697,97.2902,60.9633,196.3805,163.7206,0,U,61785,999,13690,.66798E-3,.60548E-3,0
TEVEL2-4,2025-052D,2026-07-02T16:45:45.844128,15.35166142,.0004576,97.3884,80.1195,74.9021,285.2729,0,U,63213,999,7249,.5895E-3,.20076E-3,0
TEVEL2-5,2025-052E,2026-07-02T15:43:58.433952,15.34983167,.0004562,97.3882,80.0199,76.4185,283.7567,0,U,63214,999,7248,.59165E-3,.20032E-3,0
TEVEL2-6,2025-052F,2026-07-02T05:05:06.475200,15.34930714,.0004421,97.3892,79.5600,78.1313,282.0426,0,U,63215,999,7241,.63291E-3,.21402E-3,0
TEVEL2-1,2025-052H,2026-07-02T10:36:17.123040,15.34387675,.000494,97.3860,79.3967,84.7539,275.4267,0,U,63217,999,7243,.64322E-3,.21382E-3,0
TEVEL2-3,2025-052J,2026-07-02T05:46:01.708320,15.34438788,.0004748,97.3861,79.2186,86.3332,273.8453,0,U,63218,999,7240,.63306E-3,.21076E-3,0
TEVEL2-2,2025-052K,2026-07-02T16:52:13.935648,15.34405680,.0004948,97.3858,79.6604,84.6363,275.5445,0,U,63219,999,7247,.5785E-3,.19229E-3,0
OTP-2,2025-052AB,2026-07-02T11:01:13.145952,15.24193128,.0008232,97.3853,75.6616,105.0743,255.1406,0,U,63235,999,7219,.37378E-3,.9046E-4,0
TEVEL2-9,2025-052AD,2026-07-02T10:32:44.205792,15.32374933,.0008264,97.3923,78.7387,91.0413,269.1776,0,U,63237,999,7236,.6112E-3,.19073E-3,0
TEVEL2-7,2025-052AE,2026-07-02T16:18:05.866848,15.32073469,.0008367,97.3925,78.8874,90.4399,269.7801,0,U,63238,999,7239,.54711E-3,.169E-3,0
TEVEL2-8,2025-052AF,2026-07-02T16:30:11.835072,15.32059240,.00084,97.3922,78.8721,90.8583,269.3621,0,U,63239,999,7239,.54458E-3,.16814E-3,0
INNOSAT 16 (RS92S7),2025-155C,2026-07-02T17:51:53.044416,15.25623830,.0012109,97.4576,150.8245,125.5268,234.7101,0,U,64878,999,8304,.26436E-3,.6661E-4,0
GEOSCAN 6 (RS92S6),2025-155D,2026-07-02T17:51:41.582592,15.30445230,.0009801,97.4567,152.3596,116.6928,243.5317,0,U,64879,999,8314,.37527E-3,.10991E-3,0
GEOSCAN 1 (RS92S1),2025-155E,2026-07-02T17:46:17.262048,15.31074696,.0009759,97.4563,152.5175,116.7407,243.4834,0,U,64880,999,8315,.41792E-3,.12493E-3,0
239ALFEROV (RS61S),2025-155F,2026-07-02T18:03:52.913664,15.33366472,.0009433,97.4564,153.1446,115.5986,244.6232,0,U,64881,999,8319,.47615E-3,.15308E-3,0
GEOSCAN 2 (RS92S2),2025-155Q,2026-07-02T17:33:17.495136,15.31333577,.0009203,97.4562,152.6671,106.2549,253.9705,0,U,64890,999,8316,.41531E-3,.12513E-3,0
GEOSCAN 5 (RS92S5),2025-155R,2026-07-02T17:43:27.804864,15.33680147,.000838,97.4555,153.2736,119.1906,241.0176,0,U,64891,999,8320,.50119E-3,.16275E-3,0
GEOSCAN 4 (RS92S4),2025-155S,2026-07-02T17:18:24.234912,15.33841685,.000839,97.4559,153.3091,119.0334,241.1750,0,U,64892,999,8320,.49723E-3,.16228E-3,0
