[{"name":"KUZGTU 1 (RS47S)","l1":"1 57217U 23091AV  26183.73019492  .00013276  00000+0  45554-3 0  9996","l2":"2 57217  97.5054 248.3711 0011370  48.9547 311.2675 15.30221983166753","cat":"other"},{"name":"SONATE-2","l1":"1 59112U 24043Q   26183.66855590  .00042661  00000+0  52869-3 0  9996","l2":"2 59112  97.5548 335.0278 0007228 145.6904 214.4821 15.59918243130300","cat":"other"},{"name":"MESAT1","l1":"1 60209U 24125G   26183.58951882  .00059526  00000+0  60393-3 0  9997","l2":"2 60209  97.2264  41.4395 0010893 152.1911 207.9933 15.64971704111972","cat":"other"},{"name":"OOV-CUBE (TUBSAT-30)","l1":"1 60240U 24128F   26183.69186645  .00002197  00000+0  17578-3 0  9993","l2":"2 60240  61.9926 171.5059 0042719 137.2336 223.2093 15.02831807108446","cat":"other"},{"name":"COLIBRI-S (RS67S)","l1":"1 61746U 24199M   26183.76952966  .00023847  00000+0  45094-3 0  9997","l2":"2 61746  97.2965  57.7703 0007337 207.9676 152.1181 15.48378183139820","cat":"other"},{"name":"HORS 3 (RS81S)","l1":"1 61753U 24199U   26183.72193493  .00036926  00000+0  52906-3 0  9995","l2":"2 61753  97.2948  59.8817 0005371 197.8625 162.2442 15.56073870139977","cat":"other"},{"name":"HORS 4 (RS82S)","l1":"1 61754U 24199V   26183.76204372  .00053520  00000+0  63069-3 0  9990","l2":"2 61754  97.2893  61.2287 0005465 185.6274 174.4923 15.61204349140079","cat":"other"},{"name":"SIT-2086","l1":"1 61764U 24199AF  26183.71907525  .00038811  00000+0  59547-3 0  9998","l2":"2 61764  97.2905  60.3016 0006684 183.6555 176.4651 15.54180027136846","cat":"other"},{"name":"HYPERVIEW 1G (RS66S)","l1":"1 61772U 24199AP  26183.66238698  .00170289  00000+0  87982-3 0  9999","l2":"2 61772  97.2836  64.2118 0007234 173.7326 186.4034 15.80601405137116","cat":"other"},{"name":"ALTAIR (RS65S)","l1":"1 61779U 24199AW  26183.73537852  .00010020  00000+0  27563-3 0  9993","l2":"2 61779  97.3005  52.9849 0010924 245.8288 114.1815 15.37324313139507","cat":"other"},{"name":"ASRTU-1 (AO-123)","l1":"1 61781U 24199AY  26183.73723368  .00008424  00000+0  24287-3 0  9990","l2":"2 61781  97.2976  52.2682 0011981 249.8334 110.1622 15.35897964136317","cat":"other"},{"name":"SAMSAT-IONOSPHERE (RS7*)","l1":"1 61784U 24199BB  26183.72808044  .00045800  00000+0  58660-3 0  9998","l2":"2 61784  97.2915  59.9940 0007522 203.9899 156.1008 15.59027757139982","cat":"other"},{"name":"RTU MIREA 1 (RS51S)","l1":"1 61785U 24199BC  26183.78043881  .00060548  00000+0  66798-3 0  9992","l2":"2 61785  97.2902  60.9633 0007697 196.3805 163.7206 15.62868011136908","cat":"other"},{"name":"TEVEL2-4","l1":"1 63213U 25052D   26183.69844727  .00020076  00000+0  58950-3 0  9990","l2":"2 63213  97.3884  80.1195 0004576  74.9021 285.2729 15.35166142 72496","cat":"other"},{"name":"TEVEL2-5","l1":"1 63214U 25052E   26183.65553743  .00020032  00000+0  59165-3 0  9993","l2":"2 63214  97.3882  80.0199 0004562  76.4185 283.7567 15.34983167 72486","cat":"other"},{"name":"TEVEL2-6","l1":"1 63215U 25052F   26183.21188050  .00021402  00000+0  63291-3 0  9998","l2":"2 63215  97.3892  79.5600 0004421  78.1313 282.0426 15.34930714 72413","cat":"other"},{"name":"TEVEL2-1","l1":"1 63217U 25052H   26183.44186485  .00021382  00000+0  64322-3 0  9998","l2":"2 63217  97.3860  79.3967 0004940  84.7539 275.4267 15.34387675 72436","cat":"other"},{"name":"TEVEL2-3","l1":"1 63218U 25052J   26183.24029755  .00021076  00000+0  63306-3 0  9994","l2":"2 63218  97.3861  79.2186 0004748  86.3332 273.8453 15.34438788 72403","cat":"other"},{"name":"TEVEL2-2","l1":"1 63219U 25052K   26183.70293907  .00019229  00000+0  57850-3 0  9992","l2":"2 63219  97.3858  79.6604 0004948  84.6363 275.5445 15.34405680 72478","cat":"other"},{"name":"OTP-2","l1":"1 63235U 25052AB  26183.45917993  .00009046  00000+0  37378-3 0  9999","l2":"2 63235  97.3853  75.6616 0008232 105.0743 255.1406 15.24193128 72190","cat":"other"},{"name":"TEVEL2-9","l1":"1 63237U 25052AD  26183.43940053  .00019073  00000+0  61120-3 0  9995","l2":"2 63237  97.3923  78.7387 0008264  91.0413 269.1776 15.32374933 72360","cat":"other"},{"name":"TEVEL2-7","l1":"1 63238U 25052AE  26183.67923457  .00016900  00000+0  54711-3 0  9995","l2":"2 63238  97.3925  78.8874 0008367  90.4399 269.7801 15.32073469 72393","cat":"other"},{"name":"TEVEL2-8","l1":"1 63239U 25052AF  26183.68763698  .00016814  00000+0  54458-3 0  9998","l2":"2 63239  97.3922  78.8721 0008400  90.8583 269.3621 15.32059240 72396","cat":"other"},{"name":"INNOSAT 16 (RS92S7)","l1":"1 64878U 25155C   26183.74436394  .00006661  00000+0  26436-3 0  9993","l2":"2 64878  97.4576 150.8245 0012109 125.5268 234.7101 15.25623830 83048","cat":"other"},{"name":"GEOSCAN 6 (RS92S6)","l1":"1 64879U 25155D   26183.74423128  .00010991  00000+0  37527-3 0  9999","l2":"2 64879  97.4567 152.3596 0009801 116.6928 243.5317 15.30445230 83144","cat":"other"},{"name":"GEOSCAN 1 (RS92S1)","l1":"1 64880U 25155E   26183.74047757  .00012493  00000+0  41792-3 0  9999","l2":"2 64880  97.4563 152.5175 0009759 116.7407 243.4834 15.31074696 83151","cat":"other"},{"name":"239ALFEROV (RS61S)","l1":"1 64881U 25155F   26183.75269576  .00015308  00000+0  47615-3 0  9994","l2":"2 64881  97.4564 153.1446 0009433 115.5986 244.6232 15.33366472 83196","cat":"other"},{"name":"GEOSCAN 2 (RS92S2)","l1":"1 64890U 25155Q   26183.73145249  .00012513  00000+0  41531-3 0  9998","l2":"2 64890  97.4562 152.6671 0009203 106.2549 253.9705 15.31333577 83168","cat":"other"},{"name":"GEOSCAN 5 (RS92S5)","l1":"1 64891U 25155R   26183.73851626  .00016275  00000+0  50119-3 0  9993","l2":"2 64891  97.4555 153.2736 0008380 119.1906 241.0176 15.33680147 83200","cat":"other"},{"name":"GEOSCAN 4 (RS92S4)","l1":"1 64892U 25155S   26183.72111383  .00016228  00000+0  49723-3 0  9999","l2":"2 64892  97.4559 153.3091 0008390 119.0334 241.1750 15.33841685 83200","cat":"other"}]